NORAD_CAT_ID,OBJECT_NAME,OBJECT_TYPE,EPOCH,MEAN_MOTION,ECCENTRICITY,INCLINATION,RA_OF_ASC_NODE,ARG_OF_PERICENTER,MEAN_ANOMALY,BSTAR,MEAN_MOTION_DOT,MEAN_MOTION_DDOT,TLE_LINE0,TLE_LINE1,TLE_LINE2,SEMIMAJOR_AXIS,PERIOD,APOGEE,PERIGEE,DECAYED
55964.0,STARLINK-5895,PAYLOAD,2023-05-17 18:17:39,15.69923797,0.0003396,70.0007,9.5715,266.7031,93.3776,7.646e-06,7.07e-06,0.0,0 STARLINK-5895,1 55964U 23037BC  23137.76225906  .00000707  00000-0  76460-5 0  9999,2 55964  70.0007   9.5715 0003396 266.7031  93.3776 15.69923797 10103,6737.252,91.724,361.405,356.829,0.0
55964.0,STARLINK-5895,PAYLOAD,2023-05-18 01:56:24,15.69932135,0.0003485,70.0003,8.6783,264.7674,95.3124,1.7656e-05,1.911e-05,0.0,0 STARLINK-5895,1 55964U 23037BC  23138.08083765  .00001911  00000-0  17656-4 0  9999,2 55964  70.0003   8.6783 0003485 264.7674  95.3124 15.69932135 10154,6737.228,91.724,361.441,356.745,0.0
55964.0,STARLINK-5895,PAYLOAD,2023-05-18 14:10:25,15.69926115,0.0003188,70.0008,7.2445,262.4845,97.5988,7.837e-06,7.3e-06,0.0,0 STARLINK-5895,1 55964U 23037BC  23138.59057419  .00000730  00000-0  78370-5 0  9991,2 55964  70.0008   7.2445 0003188 262.4845  97.5988 15.69926115  9896,6737.245,91.724,361.258,356.963,0.0
55964.0,STARLINK-5895,PAYLOAD,2023-05-19 19:13:44,15.69851543,0.0002845,69.9978,3.8404,274.3738,85.7133,0.00015265,0.00018125,0.0,0 STARLINK-5895,1 55964U 23037BC  23139.80121442  .00018125  00000-0  15265-3 0  9993,2 55964  69.9978   3.8404 0002845 274.3738  85.7133 15.69851543 10084,6737.459,91.728,361.241,357.407,0.0
55964.0,STARLINK-5895,PAYLOAD,2023-05-20 01:20:42,15.69933369,0.0004034,69.9978,3.1245,268.3219,91.7514,1.0503e-05,1.05e-05,0.0,0 STARLINK-5895,1 55964U 23037BC  23140.05605297  .00001050  00000-0  10503-4 0  9997,2 55964  69.9978   3.1245 0004034 268.3219  91.7514 15.69933369 10468,6737.225,91.724,361.807,356.372,0.0
55964.0,STARLINK-5895,PAYLOAD,2023-05-20 18:09:59,15.69920949,0.0003282,69.9986,1.1522,262.4798,97.6025,-9.267e-06,-1.327e-05,0.0,0 STARLINK-5895,1 55964U 23037BC  23140.75694028 -.00001327  00000-0 -92670-5 0  9999,2 55964  69.9986   1.1522 0003282 262.4798  97.6025 15.69920949 10578,6737.26,91.724,361.336,356.914,0.0
55964.0,STARLINK-5895,PAYLOAD,2023-05-20 21:13:29,15.69928856,0.0003542,69.9985,0.7947,270.0734,90.0056,9.9386e-06,9.83e-06,0.0,0 STARLINK-5895,1 55964U 23037BC  23140.88437108  .00000983  00000-0  99386-5 0  9993,2 55964  69.9985   0.7947 0003542 270.0734  90.0056 15.69928856 10258,6737.238,91.724,361.489,356.716,0.0
55964.0,STARLINK-5895,PAYLOAD,2023-05-21 00:17:01,15.69900654,0.0003215,69.9987,0.4361,274.8689,85.214,-4.3568e-05,-5.443e-05,0.0,0 STARLINK-5895,1 55964U 23037BC  23141.01181878 -.00005443  00000-0 -43568-4 0  9997,2 55964  69.9987   0.4361 0003215 274.8689  85.2140 15.69900654 10611,6737.318,91.726,361.349,357.017,0.0
55964.0,STARLINK-5895,PAYLOAD,2023-05-21 14:02:47,15.69910743,0.0003265,69.9991,358.823,272.8102,87.272,-2.729e-05,-3.491e-05,0.0,0 STARLINK-5895,1 55964U 23037BC  23141.58526915 -.00003491  00000-0 -27290-4 0  9999,2 55964  69.9991 358.8230 0003265 272.8102  87.2720 15.69910743 10362,6737.289,91.725,361.354,356.955,0.0
55964.0,STARLINK-5895,PAYLOAD,2023-05-21 15:34:31,15.69925892,0.0003458,69.9992,358.6438,271.9076,88.1724,5.337e-06,4.29e-06,0.0,0 STARLINK-5895,1 55964U 23037BC  23141.64897938  .00000429  00000-0  53370-5 0  9997,2 55964  69.9992 358.6438 0003458 271.9076  88.1724 15.69925892 10719,6737.246,91.724,361.441,356.781,0.0
55964.0,STARLINK-5895,PAYLOAD,2023-05-21 20:09:46,15.69933052,0.000353,69.9995,358.1061,274.4997,85.5795,1.955e-05,2.139e-05,0.0,0 STARLINK-5895,1 55964U 23037BC  23141.84012633  .00002139  00000-0  19550-4 0  9991,2 55964  69.9995 358.1061 0003530 274.4997  85.5795 15.69933052 10402,6737.226,91.724,361.469,356.712,0.0
55964.0,STARLINK-5895,PAYLOAD,2023-05-21 23:13:16,15.69938457,0.0003545,69.9983,357.748,265.6365,94.4426,2.9517e-05,3.34e-05,0.0,0 STARLINK-5895,1 55964U 23037BC  23141.96755559  .00003340  00000-0  29517-4 0  9994,2 55964  69.9983 357.7480 0003545 265.6365  94.4426 15.69938457 10769,6737.21,91.723,361.463,356.687,0.0
55964.0,STARLINK-5895,PAYLOAD,2023-05-22 16:02:34,15.6991398,0.0003395,69.9977,355.7774,262.5516,97.5294,5.1792e-05,6.017e-05,0.0,0 STARLINK-5895,1 55964U 23037BC  23142.66844949  .00006017  00000-0  51792-4 0  9998,2 55964  69.9977 355.7774 0003395 262.5516  97.5294 15.69913980 10876,6737.28,91.725,361.432,356.858,0.0
55964.0,STARLINK-5895,PAYLOAD,2023-05-22 20:37:49,15.69918605,0.0003475,69.997,355.2412,264.9925,95.0874,2.0096e-05,2.204e-05,0.0,0 STARLINK-5895,1 55964U 23037BC  23142.85959640  .00002204  00000-0  20096-4 0  9991,2 55964  69.9970 355.2412 0003475 264.9925  95.0874 15.69918605 10564,6737.267,91.725,361.473,356.791,0.0
55964.0,STARLINK-5895,PAYLOAD,2023-05-23 04:16:35,15.69904788,0.0003473,69.9965,354.3454,267.0963,92.9836,3.2239e-05,3.662e-05,0.0,0 STARLINK-5895,1 55964U 23037BC  23143.17818874  .00003662  00000-0  32239-4 0  9991,2 55964  69.9965 354.3454 0003473 267.0963  92.9836 15.69904788 10952,6737.306,91.725,361.511,356.832,0.0
55964.0,STARLINK-5895,PAYLOAD,2023-05-23 16:30:35,15.69924457,0.0003709,69.9966,352.9121,274.0581,86.019,1.0239e-05,1.018e-05,0.0,0 STARLINK-5895,1 55964U 23037BC  23143.68791557  .00001018  00000-0  10239-4 0  9994,2 55964  69.9966 352.9121 0003709 274.0581  86.0190 15.69924457 11036,6737.25,91.724,361.614,356.616,0.0
55964.0,STARLINK-5895,PAYLOAD,2023-05-24 15:26:54,15.69903493,0.0003605,69.9966,350.2248,266.2849,93.7935,-1.1201e-05,-1.558e-05,0.0,0 STARLINK-5895,1 55964U 23037BC  23144.64368519 -.00001558  00000-0 -11201-4 0  9990,2 55964  69.9966 350.2248 0003605 266.2849  93.7935 15.69903493 11187,6737.31,91.725,361.604,356.746,0.0
55964.0,STARLINK-5895,PAYLOAD,2023-05-25 14:23:08,15.69939872,0.0004059,69.996,347.5376,271.4511,88.622,2.7062e-05,3.044e-05,0.0,0 STARLINK-5895,1 55964U 23037BC  23145.59940710  .00003044  00000-0  27062-4 0  9996,2 55964  69.9960 347.5376 0004059 271.4511  88.6220 15.69939872 10998,6737.206,91.723,361.806,356.336,0.0
55964.0,STARLINK-5895,PAYLOAD,2023-05-25 15:54:53,15.69942854,0.0003702,69.9967,347.3589,274.6512,85.4261,3.1126e-05,3.534e-05,0.0,0 STARLINK-5895,1 55964U 23037BC  23145.66312136  .00003534  00000-0  31126-4 0  9999,2 55964  69.9967 347.3589 0003702 274.6512  85.4261 15.69942854 11343,6737.197,91.723,361.557,356.568,0.0
55964.0,STARLINK-5895,PAYLOAD,2023-05-25 22:01:55,15.6992466,0.0003382,69.9961,346.639,264.9015,95.1795,7.4193e-06,6.79e-06,0.0,0 STARLINK-5895,1 55964U 23037BC  23145.91800103  .00000679  00000-0  74193-5 0  9992,2 55964  69.9961 346.6390 0003382 264.9015  95.1795 15.69924660 11045,6737.25,91.724,361.393,356.836,0.0
55964.0,STARLINK-5895,PAYLOAD,2023-05-25 23:33:40,15.69923834,0.0003512,69.9955,346.459,269.4704,90.609,4.0692e-06,2.76e-06,0.0,0 STARLINK-5895,1 55964U 23037BC  23145.98171880  .00000276  00000-0  40692-5 0  9992,2 55964  69.9955 346.4590 0003512 269.4704  90.6090 15.69923834 11396,6737.252,91.724,361.483,356.751,0.0
55964.0,STARLINK-5895,PAYLOAD,2023-05-26 20:58:12,15.69922481,0.0003465,69.997,343.9524,266.243,93.837,1.9069e-05,2.08e-05,0.0,0 STARLINK-5895,1 55964U 23037BC  23146.87375432  .00002080  00000-0  19069-4 0  9998,2 55964  69.9970 343.9524 0003465 266.2430  93.8370 15.69922481 11191,6737.256,91.724,361.455,356.786,0.0
55964.0,STARLINK-5895,PAYLOAD,2023-05-27 06:08:43,15.69923053,0.0003506,69.9971,342.8779,271.3034,88.776,2.5465e-06,9.3e-07,0.0,0 STARLINK-5895,1 55964U 23037BC  23147.25605807  .00000093  00000-0  25465-5 0  9993,2 55964  69.9971 342.8779 0003506 271.3034  88.7760 15.69923053 11591,6737.254,91.724,361.481,356.757,0.0
55964.0,STARLINK-5895,PAYLOAD,2023-05-27 15:19:13,15.69939182,0.0003645,69.9967,341.803,272.2611,87.8168,-2.1837e-05,-2.84e-05,0.0,0 STARLINK-5895,1 55964U 23037BC  23147.63835095 -.00002840  00000-0 -21837-4 0  9991,2 55964  69.9967 341.8030 0003645 272.2611  87.8168 15.69939182 11659,6737.208,91.723,361.529,356.617,0.0
55964.0,STARLINK-5895,PAYLOAD,2023-05-27 21:26:13,15.69939067,0.0003689,69.9967,341.0863,272.9513,87.126,-2.1345e-05,-2.781e-05,0.0,0 STARLINK-5895,1 55964U 23037BC  23147.89321560 -.00002781  00000-0 -21345-4 0  9994,2 55964  69.9967 341.0863 0003689 272.9513  87.1260 15.69939067 11356,6737.208,91.723,361.559,356.588,0.0
55964.0,STARLINK-5895,PAYLOAD,2023-05-27 22:57:58,15.69938469,0.0003706,69.9967,340.9071,273.1743,86.9028,-2.1961e-05,-2.855e-05,0.0,0 STARLINK-5895,1 55964U 23037BC  23147.95693212 -.00002855  00000-0 -21961-4 0  9993,2 55964  69.9967 340.9071 0003706 273.1743  86.9028 15.69938469 11368,6737.21,91.723,361.572,356.578,0.0
55964.0,STARLINK-5895,PAYLOAD,2023-05-28 15:47:15,15.6993492,0.0003604,69.9968,338.9374,265.1843,94.8941,-3.3724e-06,-6.19e-06,0.0,0 STARLINK-5895,1 55964U 23037BC  23148.65781557 -.00000619  00000-0 -33724-5 0  9998,2 55964  69.9968 338.9374 0003604 265.1843  94.8941 15.69934920 11811,6737.22,91.724,361.513,356.657,0.0
55964.0,STARLINK-5895,PAYLOAD,2023-05-28 20:22:30,15.69935766,0.0003405,69.9969,338.3999,260.9452,99.1358,4.7975e-06,3.64e-06,0.0,0 STARLINK-5895,1 55964U 23037BC  23148.84896250  .00000364  00000-0  47975-5 0  9994,2 55964  69.9969 338.3999 0003405 260.9452  99.1358 15.69935766 11502,6737.218,91.723,361.377,356.789,0.0
55964.0,STARLINK-5895,PAYLOAD,2023-05-29 05:33:02,15.6991463,0.0003081,69.9969,337.3244,274.992,85.0924,2.0099e-06,2.9e-07,0.0,0 STARLINK-5895,1 55964U 23037BC  23149.23127930  .00000029  00000-0  20099-5 0  9996,2 55964  69.9969 337.3244 0003081 274.9920  85.0924 15.69914630 11903,6737.278,91.725,361.219,357.067,0.0
55964.0,STARLINK-5895,PAYLOAD,2023-05-29 14:43:32,15.69922425,0.0003418,69.9969,336.2496,272.4233,87.6571,6.5182e-06,5.71e-06,0.0,0 STARLINK-5895,1 55964U 23037BC  23149.61357379  .00000571  00000-0  65182-5 0  9994,2 55964  69.9969 336.2496 0003418 272.4233  87.6571 15.69922425 11620,6737.256,91.724,361.424,356.818,0.0
